{
    "links": {
        "self": "http://www.neowsapp.com/rest/v1/neo/3942364?api_key=iIulBulltgU6a56xZRHN4H3l9WmuAYTsLGpBGhQ2"
    },
    "id": "3942364",
    "neo_reference_id": "3942364",
    "name": "(2019 YM)",
    "designation": "2019 YM",
    "nasa_jpl_url": "http://ssd.jpl.nasa.gov/sbdb.cgi?sstr=3942364",
    "absolute_magnitude_h": 26.0,
    "estimated_diameter": {
        "kilometers": {
            "estimated_diameter_min": 0.0167708462,
            "estimated_diameter_max": 0.0375007522
        },
        "meters": {
            "estimated_diameter_min": 16.7708462163,
            "estimated_diameter_max": 37.5007521798
        },
        "miles": {
            "estimated_diameter_min": 0.0104209175,
            "estimated_diameter_max": 0.0233018799
        },
        "feet": {
            "estimated_diameter_min": 55.0224631002,
            "estimated_diameter_max": 123.0339677816
        }
    },
    "is_potentially_hazardous_asteroid": false,
    "close_approach_data": [
        {
            "close_approach_date": "2019-12-21",
            "close_approach_date_full": "2019-Dec-21 09:12",
            "epoch_date_close_approach": 1576919520000,
            "relative_velocity": {
                "kilometers_per_second": "17.1374520115",
                "kilometers_per_hour": "61694.8272413179",
                "miles_per_hour": "38334.7664044733"
            },
            "miss_distance": {
                "astronomical": "0.0142148519",
                "lunar": "5.5295773891",
                "kilometers": "2126511.566605453",
                "miles": "1321353.0155351314"
            },
            "orbiting_body": "Earth"
        },
        {
            "close_approach_date": "2021-10-15",
            "close_approach_date_full": "2021-Oct-15 07:17",
            "epoch_date_close_approach": 1634282220000,
            "relative_velocity": {
                "kilometers_per_second": "5.4506436278",
                "kilometers_per_hour": "19622.3170600508",
                "miles_per_hour": "12192.5447310077"
            },
            "miss_distance": {
                "astronomical": "1.6285754272",
                "lunar": "633.5158411808",
                "kilometers": "243631415.043460064",
                "miles": "151385541.4671703232"
            },
            "orbiting_body": "Juptr"
        },
        {
            "close_approach_date": "2023-05-26",
            "close_approach_date_full": "2023-May-26 04:27",
            "epoch_date_close_approach": 1685075220000,
            "relative_velocity": {
                "kilometers_per_second": "21.731393871",
                "kilometers_per_hour": "78233.0179355014",
                "miles_per_hour": "48610.9549499786"
            },
            "miss_distance": {
                "astronomical": "0.1340915941",
                "lunar": "52.1616301049",
                "kilometers": "20059816.862264567",
                "miles": "12464592.2073903446"
            },
            "orbiting_body": "Earth"
        },
        {
            "close_approach_date": "2058-05-22",
            "close_approach_date_full": "2058-May-22 02:36",
            "epoch_date_close_approach": 2789260560000,
            "relative_velocity": {
                "kilometers_per_second": "19.8646989467",
                "kilometers_per_hour": "71512.9162079699",
                "miles_per_hour": "44435.34507378"
            },
            "miss_distance": {
                "astronomical": "0.0777710881",
                "lunar": "30.2529532709",
                "kilometers": "11634389.127342347",
                "miles": "7229274.1778325086"
            },
            "orbiting_body": "Earth"
        }
    ],
    "orbital_data": {
        "orbit_id": "3",
        "orbit_determination_date": "2020-10-08 06:53:41",
        "first_observation_date": "2019-12-19",
        "last_observation_date": "2019-12-21",
        "data_arc_in_days": 2,
        "observations_used": 31,
        "orbit_uncertainty": "7",
        "minimum_orbit_intersection": ".000605025",
        "jupiter_tisserand_invariant": "3.362",
        "epoch_osculation": "2459000.5",
        "eccentricity": ".6709005356582199",
        "semi_major_axis": "2.162235276967458",
        "inclination": "2.225826275671843",
        "ascending_node_longitude": "88.8357977208407",
        "orbital_period": "1161.322525225225",
        "perihelion_distance": ".7115904714308908",
        "perihelion_argument": "70.88825517220472",
        "aphelion_distance": "3.612880082504025",
        "perihelion_time": "2458881.403701109807",
        "mean_anomaly": "36.91882889480209",
        "mean_motion": ".3099914039213028",
        "equinox": "J2000",
        "orbit_class": {
            "orbit_class_type": "APO",
            "orbit_class_description": "Near-Earth asteroid orbits which cross the Earth’s orbit similar to that of 1862 Apollo",
            "orbit_class_range": "a (semi-major axis) > 1.0 AU; q (perihelion) < 1.017 AU"
        }
    },
    "is_sentry_object": false
}